NORAD_CAT_ID,OBJECT_NAME,OBJECT_TYPE,EPOCH,MEAN_MOTION,ECCENTRICITY,INCLINATION,RA_OF_ASC_NODE,ARG_OF_PERICENTER,MEAN_ANOMALY,BSTAR,MEAN_MOTION_DOT,MEAN_MOTION_DDOT,TLE_LINE0,TLE_LINE1,TLE_LINE2,SEMIMAJOR_AXIS,PERIOD,APOGEE,PERIGEE,DECAYED
53999.0,STARLINK-5079,PAYLOAD,2023-09-12 13:03:55,15.0885,0.000129,53.2177,335.3522,85.4342,274.6797,0.00021725,3.172e-05,0.0,0 STARLINK-5079,1 53999U 22125AM  23255.54438694  .00003172  00000-0  21725-3 0  9990,2 53999  53.2177 335.3522 0001290  85.4342 274.6797 15.08850000 52212,6917.85,95.437,540.607,538.822,0.0
53999.0,STARLINK-5079,PAYLOAD,2023-09-12 14:39:18,15.08852649,0.0001311,53.218,335.0544,84.7802,275.334,0.00020244,2.936e-05,0.0,0 STARLINK-5079,1 53999U 22125AM  23255.61062564  .00002936  00000-0  20244-3 0  9999,2 53999  53.2180 335.0544 0001311  84.7802 275.3340 15.08852649 52228,6917.842,95.437,540.614,538.8,0.0
53999.0,STARLINK-5079,PAYLOAD,2023-09-12 22:36:13,15.08848681,0.0001225,53.2165,333.5704,84.1402,275.9729,0.00026868,3.992e-05,0.0,0 STARLINK-5079,1 53999U 22125AM  23255.94182787  .00003992  00000-0  26868-3 0  9996,2 53999  53.2165 333.5704 0001225  84.1402 275.9729 15.08848681 52347,6917.854,95.437,540.566,538.871,0.0
53999.0,STARLINK-5079,PAYLOAD,2023-09-13 12:54:41,15.08856679,0.0001382,53.2175,330.892,86.7669,273.3481,0.0003843,5.836e-05,0.0,0 STARLINK-5079,1 53999U 22125AM  23256.53798361  .00005836  00000-0  38430-3 0  9990,2 53999  53.2175 330.8920 0001382  86.7669 273.3481 15.08856679 52360,6917.829,95.436,540.65,538.738,0.0
53999.0,STARLINK-5079,PAYLOAD,2023-09-14 00:02:24,15.088459,0.0001506,53.2165,328.8119,74.0381,286.0777,0.00014824,2.072e-05,0.0,0 STARLINK-5079,1 53999U 22125AM  23257.00166696  .00002072  00000-0  14824-3 0  9993,2 53999  53.2165 328.8119 0001506  74.0381 286.0777 15.08845900 52505,6917.862,95.437,540.769,538.686,0.0
53999.0,STARLINK-5079,PAYLOAD,2023-09-14 09:34:43,15.08833216,0.0001461,53.2169,327.0272,76.8805,283.235,-0.00013221,-2.391e-05,0.0,0 STARLINK-5079,1 53999U 22125AM  23257.39911093 -.00002391  00000-0 -13221-3 0  9990,2 53999  53.2169 327.0272 0001461  76.8805 283.2350 15.08833216 52560,6917.901,95.438,540.777,538.755,0.0
53999.0,STARLINK-5079,PAYLOAD,2023-09-14 11:10:06,15.08835967,0.0001412,53.2168,326.7298,80.6618,279.4534,-9.0767e-05,-1.732e-05,0.0,0 STARLINK-5079,1 53999U 22125AM  23257.46535087 -.00001732  00000-0 -90767-4 0  9992,2 53999  53.2168 326.7298 0001412  80.6618 279.4534 15.08835967 52504,6917.893,95.438,540.735,538.781,0.0
53999.0,STARLINK-5079,PAYLOAD,2023-09-15 11:00:53,15.08843934,0.0001416,53.2185,322.2662,88.0063,272.1091,-6.5776e-05,-1.335e-05,0.0,0 STARLINK-5079,1 53999U 22125AM  23258.45895324 -.00001335  00000-0 -65776-4 0  9996,2 53999  53.2185 322.2662 0001416  88.0063 272.1091 15.08843934 52656,6917.868,95.437,540.713,538.754,0.0
53999.0,STARLINK-5079,PAYLOAD,2023-09-16 09:16:18,15.08831635,0.0001403,53.2173,318.1055,72.2347,287.8798,0.00010899,1.447e-05,0.0,0 STARLINK-5079,1 53999U 22125AM  23259.38632004  .00001447  00000-0  10899-3 0  9990,2 53999  53.2173 318.1055 0001403  72.2347 287.8798 15.08831635 52864,6917.906,95.438,540.742,538.8,0.0
53999.0,STARLINK-5079,PAYLOAD,2023-09-16 10:51:41,15.08832748,0.0001529,53.219,317.812,93.7439,266.3728,0.00010415,1.37e-05,0.0,0 STARLINK-5079,1 53999U 22125AM  23259.45255950  .00001370  00000-0  10415-3 0  9998,2 53999  53.2190 317.8120 0001529  93.7439 266.3728 15.08832748 52806,6917.903,95.438,540.825,538.71,0.0
53999.0,STARLINK-5079,PAYLOAD,2023-09-17 09:07:04,15.08842121,0.0001491,53.2187,313.6491,88.3398,271.7765,0.00012458,1.695e-05,0.0,0 STARLINK-5079,1 53999U 22125AM  23260.37991709  .00001695  00000-0  12458-3 0  9999,2 53999  53.2187 313.6491 0001491  88.3398 271.7765 15.08842121 52941,6917.874,95.437,540.77,538.707,0.0
53999.0,STARLINK-5079,PAYLOAD,2023-09-18 08:57:52,15.08837636,0.0001415,53.2179,309.1862,94.9739,265.1415,0.00010905,1.448e-05,0.0,0 STARLINK-5079,1 53999U 22125AM  23261.37352072  .00001448  00000-0  10905-3 0  9995,2 53999  53.2179 309.1862 0001415  94.9739 265.1415 15.08837636 53161,6917.888,95.438,540.731,538.774,0.0
53999.0,STARLINK-5079,PAYLOAD,2023-09-18 20:05:33,15.08842639,0.0001421,53.2178,307.1047,96.244,263.8714,8.0906e-05,1e-05,0.0,0 STARLINK-5079,1 53999U 22125AM  23261.83719797  .00001000  00000-0  80906-4 0  9990,2 53999  53.2178 307.1047 0001421  96.2440 263.8714 15.08842639 53160,6917.872,95.437,540.72,538.754,0.0
53999.0,STARLINK-5079,PAYLOAD,2023-09-19 10:24:01,15.08851922,0.0001467,53.2165,304.4274,94.0568,266.0592,0.00018504,2.659e-05,0.0,0 STARLINK-5079,1 53999U 22125AM  23262.43335025  .00002659  00000-0  18504-3 0  9990,2 53999  53.2165 304.4274 0001467  94.0568 266.0592 15.08851922 53327,6917.844,95.437,540.724,538.694,0.0
53999.0,STARLINK-5079,PAYLOAD,2023-09-19 23:07:06,15.08841466,0.0001868,53.2165,302.0485,112.2253,247.8937,9.4775e-05,1.221e-05,0.0,0 STARLINK-5079,1 53999U 22125AM  23262.96327464  .00001221  00000-0  94775-4 0  9995,2 53999  53.2165 302.0485 0001868 112.2253 247.8937 15.08841466 53405,6917.876,95.437,541.033,538.449,0.0
53999.0,STARLINK-5079,PAYLOAD,2023-09-20 08:39:26,15.08827168,0.0001465,53.2158,300.2641,86.8262,273.2898,-0.00014053,-2.523e-05,0.0,0 STARLINK-5079,1 53999U 22125AM  23263.36072360 -.00002523  00000-0 -14053-3 0  9990,2 53999  53.2158 300.2641 0001465  86.8262 273.2898 15.08827168 53468,6917.92,95.438,540.798,538.771,0.0
53999.0,STARLINK-5079,PAYLOAD,2023-09-20 10:14:49,15.08827778,0.0001469,53.2159,299.9672,81.9981,278.1177,-0.00012419,-2.263e-05,0.0,0 STARLINK-5079,1 53999U 22125AM  23263.42696288 -.00002263  00000-0 -12419-3 0  9993,2 53999  53.2159 299.9672 0001469  81.9981 278.1177 15.08827778 53400,6917.918,95.438,540.799,538.767,0.0
53999.0,STARLINK-5079,PAYLOAD,2023-09-21 08:30:14,15.0884419,0.0001522,53.2156,295.803,76.6251,283.4911,0.0009838,0.00015406,0.0,0 STARLINK-5079,1 53999U 22125AM  23264.35432907  .00015406  00000-0  98380-3 0  9994,2 53999  53.2156 295.8030 0001522  76.6251 283.4911 15.08844190 53616,6917.868,95.437,540.785,538.68,0.0
53999.0,STARLINK-5079,PAYLOAD,2023-09-21 19:37:55,15.08850211,0.0001588,53.2157,293.7219,72.4649,287.6517,0.00076335,0.00011885,0.0,0 STARLINK-5079,1 53999U 22125AM  23264.81800819  .00011885  00000-0  76335-3 0  9999,2 53999  53.2157 293.7219 0001588  72.4649 287.6517 15.08850211 53619,6917.849,95.437,540.813,538.616,0.0
53999.0,STARLINK-5079,PAYLOAD,2023-09-22 01:59:28,15.08850197,0.0001551,53.2157,292.5324,79.3522,280.7645,0.00059624,9.217e-05,0.0,0 STARLINK-5079,1 53999U 22125AM  23265.08296736  .00009217  00000-0  59624-3 0  9994,2 53999  53.2157 292.5324 0001551  79.3522 280.7645 15.08850197 53720,6917.849,95.437,540.787,538.641,0.0
53999.0,STARLINK-5079,PAYLOAD,2023-09-22 08:21:00,15.08853264,0.0001556,53.2158,291.3424,81.7402,278.3766,0.00058226,8.994e-05,0.0,0 STARLINK-5079,1 53999U 22125AM  23265.34792553  .00008994  00000-0  58226-3 0  9999,2 53999  53.2158 291.3424 0001556  81.7402 278.3766 15.08853264 53699,6917.84,95.437,540.781,538.628,0.0
53999.0,STARLINK-5079,PAYLOAD,2023-09-23 01:50:15,15.08846493,0.0001694,53.2151,288.072,78.057,282.0611,0.00018328,2.631e-05,0.0,0 STARLINK-5079,1 53999U 22125AM  23266.07656552  .00002631  00000-0  18328-3 0  9999,2 53999  53.2151 288.0720 0001694  78.0570 282.0611 15.08846493 53879,6917.861,95.437,540.897,538.554,0.0
53999.0,STARLINK-5079,PAYLOAD,2023-09-23 11:22:33,15.08846386,0.000164,53.2151,286.287,82.2614,277.8564,0.00012551,1.71e-05,0.0,0 STARLINK-5079,1 53999U 22125AM  23266.47400402  .00001710  00000-0  12551-3 0  9993,2 53999  53.2151 286.2870 0001640  82.2614 277.8564 15.08846386 53861,6917.861,95.437,540.86,538.591,0.0
53999.0,STARLINK-5079,PAYLOAD,2023-09-24 01:41:02,15.08838751,0.0001652,53.2152,283.6099,93.1713,266.9469,4.94e-06,-2.09e-06,0.0,0 STARLINK-5079,1 53999U 22125AM  23267.07016656 -.00000209  00000-0  49400-5 0  9992,2 53999  53.2152 283.6099 0001652  93.1713 266.9469 15.08838751 54029,6917.884,95.438,540.892,538.606,0.0
53999.0,STARLINK-5079,PAYLOAD,2023-09-24 08:02:34,15.0884179,0.0001627,53.2175,282.4211,102.2694,257.848,1.4393e-05,-5.9e-07,0.0,0 STARLINK-5079,1 53999U 22125AM  23267.33512638 -.00000059  00000-0  14393-4 0  9997,2 53999  53.2175 282.4211 0001627 102.2694 257.8480 15.08841790 53993,6917.875,95.437,540.865,538.614,0.0
53999.0,STARLINK-5079,PAYLOAD,2023-09-25 07:53:21,15.08846678,0.0001492,53.2163,277.9607,98.0533,262.0628,0.00014826,2.073e-05,0.0,0 STARLINK-5079,1 53999U 22125AM  23268.32872124  .00002073  00000-0  14826-3 0  9993,2 53999  53.2163 277.9607 0001492  98.0533 262.0628 15.08846678 54210,6917.86,95.437,540.757,538.693,0.0
53999.0,STARLINK-5079,PAYLOAD,2023-09-25 11:04:07,15.0884857,0.0001502,53.216,277.3653,98.6444,261.4718,0.00015824,2.232e-05,0.0,0 STARLINK-5079,1 53999U 22125AM  23268.46119997  .00002232  00000-0  15824-3 0  9996,2 53999  53.2160 277.3653 0001502  98.6444 261.4718 15.08848570 54161,6917.854,95.437,540.758,538.68,0.0
53999.0,STARLINK-5079,PAYLOAD,2023-09-25 17:25:40,15.08846411,0.0001557,53.2147,276.1757,101.262,258.8547,0.00016942,2.41e-05,0.0,0 STARLINK-5079,1 53999U 22125AM  23268.72616159  .00002410  00000-0  16942-3 0  9997,2 53999  53.2147 276.1757 0001557 101.2620 258.8547 15.08846411 54202,6917.861,95.437,540.803,538.649,0.0
53999.0,STARLINK-5079,PAYLOAD,2023-09-26 01:22:36,15.08838336,0.0001457,53.2154,274.69,96.3783,263.7375,7.2788e-05,8.71e-06,0.0,0 STARLINK-5079,1 53999U 22125AM  23269.05736595  .00000871  00000-0  72788-4 0  9991,2 53999  53.2154 274.6900 0001457  96.3783 263.7375 15.08838336 54320,6917.885,95.438,540.758,538.743,0.0
53999.0,STARLINK-5079,PAYLOAD,2023-09-26 07:44:08,15.08845708,0.0001471,53.2158,273.5009,97.1428,262.9731,0.00015229,2.137e-05,0.0,0 STARLINK-5079,1 53999U 22125AM  23269.32232166  .00002137  00000-0  15229-3 0  9999,2 53999  53.2158 273.5009 0001471  97.1428 262.9731 15.08845708 54297,6917.863,95.437,540.746,538.71,0.0
